[
    {
        "alpha2": "aw",
        "alpha3": "abw",
        "name": { "common": "Aruba", "official": "Aruba" },
        "tld": [".aw"],
        "currencies": ["awg"],
        "callingCodes": ["297"],
        "languages": ["nld","pap"]
    },
    {
        "alpha2": "af",
        "alpha3": "afg",
        "name": { "common": "Afghanistan", "official": "Islamic Republic of Afghanistan" },
        "tld": [".af"],
        "currencies": ["afn"],
        "callingCodes": ["93"],
        "languages": ["prs","pus","tuk"]
    },
    {
        "alpha2": "ao",
        "alpha3": "ago",
        "name": { "common": "Angola", "official": "Republic of Angola" },
        "tld": [".ao"],
        "currencies": ["aoa"],
        "callingCodes": ["244"],
        "languages": ["por"]
    },
    {
        "alpha2": "ai",
        "alpha3": "aia",
        "name": { "common": "Anguilla", "official": "Anguilla" },
        "tld": [".ai"],
        "currencies": ["xcd"],
        "callingCodes": ["1264"],
        "languages": ["eng"]
    },
    {
        "alpha2": "ax",
        "alpha3": "ala",
        "name": { "common": "Åland Islands", "official": "Åland Islands" },
        "tld": [".ax"],
        "currencies": ["eur"],
        "callingCodes": ["358"],
        "languages": ["swe"]
    },
    {
        "alpha2": "al",
        "alpha3": "alb",
        "name": { "common": "Albania", "official": "Republic of Albania" },
        "tld": [".al"],
        "currencies": ["all"],
        "callingCodes": ["355"],
        "languages": ["sqi"]
    },
    {
        "alpha2": "ad",
        "alpha3": "and",
        "name": { "common": "Andorra", "official": "Principality of Andorra" },
        "tld": [".ad"],
        "currencies": ["eur"],
        "callingCodes": ["376"],
        "languages": ["cat"]
    },
    {
        "alpha2": "ae",
        "alpha3": "are",
        "name": { "common": "United Arab Emirates", "official": "United Arab Emirates" },
        "tld": [".ae","امارات."],
        "currencies": ["aed"],
        "callingCodes": ["971"],
        "languages": ["ara"]
    },
    {
        "alpha2": "ar",
        "alpha3": "arg",
        "name": { "common": "Argentina", "official": "Argentine Republic" },
        "tld": [".ar"],
        "currencies": ["ars"],
        "callingCodes": ["54"],
        "languages": ["grn","spa"]
    },
    {
        "alpha2": "am",
        "alpha3": "arm",
        "name": { "common": "Armenia", "official": "Republic of Armenia" },
        "tld": [".am"],
        "currencies": ["amd"],
        "callingCodes": ["374"],
        "languages": ["hye","rus"]
    },
    {
        "alpha2": "as",
        "alpha3": "asm",
        "name": { "common": "American Samoa", "official": "American Samoa" },
        "tld": [".as"],
        "currencies": ["usd"],
        "callingCodes": ["1684"],
        "languages": ["eng","smo"]
    },
    {
        "alpha2": "aq",
        "alpha3": "ata",
        "name": { "common": "Antarctica", "official": "Antarctica" },
        "tld": [".aq"],
        "currencies": [],
        "callingCodes": [],
        "languages": []
    },
    {
        "alpha2": "tf",
        "alpha3": "atf",
        "name": { "common": "French Southern and Antarctic Lands", "official": "Territory of the French Southern and Antarctic Lands" },
        "tld": [".tf"],
        "currencies": ["eur"],
        "callingCodes": [],
        "languages": ["fra"]
    },
    {
        "alpha2": "ag",
        "alpha3": "atg",
        "name": { "common": "Antigua and Barbuda", "official": "Antigua and Barbuda" },
        "tld": [".ag"],
        "currencies": ["xcd"],
        "callingCodes": ["1268"],
        "languages": ["eng"]
    },
    {
        "alpha2": "au",
        "alpha3": "aus",
        "name": { "common": "Australia", "official": "Commonwealth of Australia" },
        "tld": [".au"],
        "currencies": ["aud"],
        "callingCodes": ["61"],
        "languages": ["eng"]
    },
    {
        "alpha2": "at",
        "alpha3": "aut",
        "name": { "common": "Austria", "official": "Republic of Austria" },
        "tld": [".at"],
        "currencies": ["eur"],
        "callingCodes": ["43"],
        "languages": ["bar"]
    },
    {
        "alpha2": "az",
        "alpha3": "aze",
        "name": { "common": "Azerbaijan", "official": "Republic of Azerbaijan" },
        "tld": [".az"],
        "currencies": ["azn"],
        "callingCodes": ["994"],
        "languages": ["aze","rus"]
    },
    {
        "alpha2": "bi",
        "alpha3": "bdi",
        "name": { "common": "Burundi", "official": "Republic of Burundi" },
        "tld": [".bi"],
        "currencies": ["bif"],
        "callingCodes": ["257"],
        "languages": ["fra","run"]
    },
    {
        "alpha2": "be",
        "alpha3": "bel",
        "name": { "common": "Belgium", "official": "Kingdom of Belgium" },
        "tld": [".be"],
        "currencies": ["eur"],
        "callingCodes": ["32"],
        "languages": ["deu","fra","nld"]
    },
    {
        "alpha2": "bj",
        "alpha3": "ben",
        "name": { "common": "Benin", "official": "Republic of Benin" },
        "tld": [".bj"],
        "currencies": ["xof"],
        "callingCodes": ["229"],
        "languages": ["fra"]
    },
    {
        "alpha2": "bf",
        "alpha3": "bfa",
        "name": { "common": "Burkina Faso", "official": "Burkina Faso" },
        "tld": [".bf"],
        "currencies": ["xof"],
        "callingCodes": ["226"],
        "languages": ["fra"]
    },
    {
        "alpha2": "bd",
        "alpha3": "bgd",
        "name": { "common": "Bangladesh", "official": "People's Republic of Bangladesh" },
        "tld": [".bd"],
        "currencies": ["bdt"],
        "callingCodes": ["880"],
        "languages": ["ben"]
    },
    {
        "alpha2": "bg",
        "alpha3": "bgr",
        "name": { "common": "Bulgaria", "official": "Republic of Bulgaria" },
        "tld": [".bg"],
        "currencies": ["bgn"],
        "callingCodes": ["359"],
        "languages": ["bul"]
    },
    {
        "alpha2": "bh",
        "alpha3": "bhr",
        "name": { "common": "Bahrain", "official": "Kingdom of Bahrain" },
        "tld": [".bh"],
        "currencies": ["bhd"],
        "callingCodes": ["973"],
        "languages": ["ara"]
    },
    {
        "alpha2": "bs",
        "alpha3": "bhs",
        "name": { "common": "Bahamas", "official": "Commonwealth of the Bahamas" },
        "tld": [".bs"],
        "currencies": ["bsd"],
        "callingCodes": ["1242"],
        "languages": ["eng"]
    },
    {
        "alpha2": "ba",
        "alpha3": "bih",
        "name": { "common": "Bosnia and Herzegovina", "official": "Bosnia and Herzegovina" },
        "tld": [".ba"],
        "currencies": ["bam"],
        "callingCodes": ["387"],
        "languages": ["bos","hrv","srp"]
    },
    {
        "alpha2": "bl",
        "alpha3": "blm",
        "name": { "common": "Saint Barthélemy", "official": "Collectivity of Saint BarthélemySaint Barthélemy" },
        "tld": [".bl"],
        "currencies": ["eur"],
        "callingCodes": ["590"],
        "languages": ["fra"]
    },
    {
        "alpha2": "by",
        "alpha3": "blr",
        "name": { "common": "Belarus", "official": "Republic of Belarus" },
        "tld": [".by"],
        "currencies": ["byr"],
        "callingCodes": ["375"],
        "languages": ["bel","rus"]
    },
    {
        "alpha2": "bz",
        "alpha3": "blz",
        "name": { "common": "Belize", "official": "Belize" },
        "tld": [".bz"],
        "currencies": ["bzd"],
        "callingCodes": ["501"],
        "languages": ["bjz","eng","spa"]
    },
    {
        "alpha2": "bm",
        "alpha3": "bmu",
        "name": { "common": "Bermuda", "official": "Bermuda" },
        "tld": [".bm"],
        "currencies": ["bmd"],
        "callingCodes": ["1441"],
        "languages": ["eng"]
    },
    {
        "alpha2": "bo",
        "alpha3": "bol",
        "name": { "common": "Bolivia", "official": "Plurinational State of Bolivia" },
        "tld": [".bo"],
        "currencies": ["bob","bov"],
        "callingCodes": ["591"],
        "languages": ["aym","grn","que","spa"]
    },
    {
        "alpha2": "br",
        "alpha3": "bra",
        "name": { "common": "Brazil", "official": "Federative Republic of Brazil" },
        "tld": [".br"],
        "currencies": ["brl"],
        "callingCodes": ["55"],
        "languages": ["por"]
    },
    {
        "alpha2": "bb",
        "alpha3": "brb",
        "name": { "common": "Barbados", "official": "Barbados" },
        "tld": [".bb"],
        "currencies": ["bbd"],
        "callingCodes": ["1246"],
        "languages": ["eng"]
    },
    {
        "alpha2": "bn",
        "alpha3": "brn",
        "name": { "common": "Brunei", "official": "Nation of Brunei, Abode of Peace" },
        "tld": [".bn"],
        "currencies": ["bnd"],
        "callingCodes": ["673"],
        "languages": ["msa"]
    },
    {
        "alpha2": "bt",
        "alpha3": "btn",
        "name": { "common": "Bhutan", "official": "Kingdom of Bhutan" },
        "tld": [".bt"],
        "currencies": ["btn","inr"],
        "callingCodes": ["975"],
        "languages": ["dzo"]
    },
    {
        "alpha2": "bv",
        "alpha3": "bvt",
        "name": { "common": "Bouvet Island", "official": "Bouvet Island" },
        "tld": [".bv"],
        "currencies": ["nok"],
        "callingCodes": [],
        "languages": ["nor"]
    },
    {
        "alpha2": "bw",
        "alpha3": "bwa",
        "name": { "common": "Botswana", "official": "Republic of Botswana" },
        "tld": [".bw"],
        "currencies": ["bwp"],
        "callingCodes": ["267"],
        "languages": ["eng","tsn"]
    },
    {
        "alpha2": "cf",
        "alpha3": "caf",
        "name": { "common": "Central African Republic", "official": "Central African Republic" },
        "tld": [".cf"],
        "currencies": ["xaf"],
        "callingCodes": ["236"],
        "languages": ["fra","sag"]
    },
    {
        "alpha2": "ca",
        "alpha3": "can",
        "name": { "common": "Canada", "official": "Canada" },
        "tld": [".ca"],
        "currencies": ["cad"],
        "callingCodes": ["1"],
        "languages": ["eng","fra"]
    },
    {
        "alpha2": "cc",
        "alpha3": "cck",
        "name": { "common": "Cocos (Keeling) Islands", "official": "Territory of the Cocos (Keeling) Islands" },
        "tld": [".cc"],
        "currencies": ["aud"],
        "callingCodes": ["61"],
        "languages": ["eng"]
    },
    {
        "alpha2": "ch",
        "alpha3": "che",
        "name": { "common": "Switzerland", "official": "Swiss Confederation" },
        "tld": [".ch"],
        "currencies": ["che","chf","chw"],
        "callingCodes": ["41"],
        "languages": ["fra","gsw","ita","roh"]
    },
    {
        "alpha2": "cl",
        "alpha3": "chl",
        "name": { "common": "Chile", "official": "Republic of Chile" },
        "tld": [".cl"],
        "currencies": ["clf","clp"],
        "callingCodes": ["56"],
        "languages": ["spa"]
    },
    {
        "alpha2": "cn",
        "alpha3": "chn",
        "name": { "common": "China", "official": "People's Republic of China" },
        "tld": [".cn",".中国",".中國",".公司",".网络"],
        "currencies": ["cny"],
        "callingCodes": ["86"],
        "languages": ["cmn"]
    },
    {
        "alpha2": "ci",
        "alpha3": "civ",
        "name": { "common": "Ivory Coast", "official": "Republic of Côte d'Ivoire" },
        "tld": [".ci"],
        "currencies": ["xof"],
        "callingCodes": ["225"],
        "languages": ["fra"]
    },
    {
        "alpha2": "cm",
        "alpha3": "cmr",
        "name": { "common": "Cameroon", "official": "Republic of Cameroon" },
        "tld": [".cm"],
        "currencies": ["xaf"],
        "callingCodes": ["237"],
        "languages": ["eng","fra"]
    },
    {
        "alpha2": "cd",
        "alpha3": "cod",
        "name": { "common": "DR Congo", "official": "Democratic Republic of the Congo" },
        "tld": [".cd"],
        "currencies": ["cdf"],
        "callingCodes": ["243"],
        "languages": ["fra","kon","lin","lua","swa"]
    },
    {
        "alpha2": "cg",
        "alpha3": "cog",
        "name": { "common": "Republic of the Congo", "official": "Republic of the Congo" },
        "tld": [".cg"],
        "currencies": ["xaf"],
        "callingCodes": ["242"],
        "languages": ["fra","kon","lin"]
    },
    {
        "alpha2": "ck",
        "alpha3": "cok",
        "name": { "common": "Cook Islands", "official": "Cook Islands" },
        "tld": [".ck"],
        "currencies": ["nzd"],
        "callingCodes": ["682"],
        "languages": ["eng","rar"]
    },
    {
        "alpha2": "co",
        "alpha3": "col",
        "name": { "common": "Colombia", "official": "Republic of Colombia" },
        "tld": [".co"],
        "currencies": ["cop"],
        "callingCodes": ["57"],
        "languages": ["spa"]
    },
    {
        "alpha2": "km",
        "alpha3": "com",
        "name": { "common": "Comoros", "official": "Union of the Comoros" },
        "tld": [".km"],
        "currencies": ["kmf"],
        "callingCodes": ["269"],
        "languages": ["ara","fra","zdj"]
    },
    {
        "alpha2": "cv",
        "alpha3": "cpv",
        "name": { "common": "Cape Verde", "official": "Republic of Cabo Verde" },
        "tld": [".cv"],
        "currencies": ["cve"],
        "callingCodes": ["238"],
        "languages": ["por"]
    },
    {
        "alpha2": "cr",
        "alpha3": "cri",
        "name": { "common": "Costa Rica", "official": "Republic of Costa Rica" },
        "tld": [".cr"],
        "currencies": ["crc"],
        "callingCodes": ["506"],
        "languages": ["spa"]
    },
    {
        "alpha2": "cu",
        "alpha3": "cub",
        "name": { "common": "Cuba", "official": "Republic of Cuba" },
        "tld": [".cu"],
        "currencies": ["cuc","cup"],
        "callingCodes": ["53"],
        "languages": ["spa"]
    },
    {
        "alpha2": "cw",
        "alpha3": "cuw",
        "name": { "common": "Curaçao", "official": "Country of Curaçao" },
        "tld": [".cw"],
        "currencies": ["ang"],
        "callingCodes": ["5999"],
        "languages": ["eng","nld","pap"]
    },
    {
        "alpha2": "cx",
        "alpha3": "cxr",
        "name": { "common": "Christmas Island", "official": "Territory of Christmas Island" },
        "tld": [".cx"],
        "currencies": ["aud"],
        "callingCodes": ["61"],
        "languages": ["eng"]
    },
    {
        "alpha2": "ky",
        "alpha3": "cym",
        "name": { "common": "Cayman Islands", "official": "Cayman Islands" },
        "tld": [".ky"],
        "currencies": ["kyd"],
        "callingCodes": ["1345"],
        "languages": ["eng"]
    },
    {
        "alpha2": "cy",
        "alpha3": "cyp",
        "name": { "common": "Cyprus", "official": "Republic of Cyprus" },
        "tld": [".cy"],
        "currencies": ["eur"],
        "callingCodes": ["357"],
        "languages": ["ell","tur"]
    },
    {
        "alpha2": "cz",
        "alpha3": "cze",
        "name": { "common": "Czech Republic", "official": "Czech Republic" },
        "tld": [".cz"],
        "currencies": ["czk"],
        "callingCodes": ["420"],
        "languages": ["ces","slk"]
    },
    {
        "alpha2": "de",
        "alpha3": "deu",
        "name": { "common": "Germany", "official": "Federal Republic of Germany" },
        "tld": [".de"],
        "currencies": ["eur"],
        "callingCodes": ["49"],
        "languages": ["deu"]
    },
    {
        "alpha2": "dj",
        "alpha3": "dji",
        "name": { "common": "Djibouti", "official": "Republic of Djibouti" },
        "tld": [".dj"],
        "currencies": ["djf"],
        "callingCodes": ["253"],
        "languages": ["ara","fra"]
    },
    {
        "alpha2": "dm",
        "alpha3": "dma",
        "name": { "common": "Dominica", "official": "Commonwealth of Dominica" },
        "tld": [".dm"],
        "currencies": ["xcd"],
        "callingCodes": ["1767"],
        "languages": ["eng"]
    },
    {
        "alpha2": "dk",
        "alpha3": "dnk",
        "name": { "common": "Denmark", "official": "Kingdom of Denmark" },
        "tld": [".dk"],
        "currencies": ["dkk"],
        "callingCodes": ["45"],
        "languages": ["dan"]
    },
    {
        "alpha2": "do",
        "alpha3": "dom",
        "name": { "common": "Dominican Republic", "official": "Dominican Republic" },
        "tld": [".do"],
        "currencies": ["dop"],
        "callingCodes": ["1809","1829","1849"],
        "languages": ["spa"]
    },
    {
        "alpha2": "dz",
        "alpha3": "dza",
        "name": { "common": "Algeria", "official": "People's Democratic Republic of Algeria" },
        "tld": [".dz","الجزائر."],
        "currencies": ["dzd"],
        "callingCodes": ["213"],
        "languages": ["ara"]
    },
    {
        "alpha2": "ec",
        "alpha3": "ecu",
        "name": { "common": "Ecuador", "official": "Republic of Ecuador" },
        "tld": [".ec"],
        "currencies": ["usd"],
        "callingCodes": ["593"],
        "languages": ["spa"]
    },
    {
        "alpha2": "eg",
        "alpha3": "egy",
        "name": { "common": "Egypt", "official": "Arab Republic of Egypt" },
        "tld": [".eg",".مصر"],
        "currencies": ["egp"],
        "callingCodes": ["20"],
        "languages": ["ara"]
    },
    {
        "alpha2": "er",
        "alpha3": "eri",
        "name": { "common": "Eritrea", "official": "State of Eritrea" },
        "tld": [".er"],
        "currencies": ["ern"],
        "callingCodes": ["291"],
        "languages": ["ara","eng","tir"]
    },
    {
        "alpha2": "eh",
        "alpha3": "esh",
        "name": { "common": "Western Sahara", "official": "Sahrawi Arab Democratic Republic" },
        "tld": [".eh"],
        "currencies": ["mad","dzd","mro"],
        "callingCodes": ["212"],
        "languages": ["ber","mey","spa"]
    },
    {
        "alpha2": "es",
        "alpha3": "esp",
        "name": { "common": "Spain", "official": "Kingdom of Spain" },
        "tld": [".es"],
        "currencies": ["eur"],
        "callingCodes": ["34"],
        "languages": ["cat","eus","glg","oci","spa"]
    },
    {
        "alpha2": "ee",
        "alpha3": "est",
        "name": { "common": "Estonia", "official": "Republic of Estonia" },
        "tld": [".ee"],
        "currencies": ["eur"],
        "callingCodes": ["372"],
        "languages": ["est"]
    },
    {
        "alpha2": "et",
        "alpha3": "eth",
        "name": { "common": "Ethiopia", "official": "Federal Democratic Republic of Ethiopia" },
        "tld": [".et"],
        "currencies": ["etb"],
        "callingCodes": ["251"],
        "languages": ["amh"]
    },
    {
        "alpha2": "fi",
        "alpha3": "fin",
        "name": { "common": "Finland", "official": "Republic of Finland" },
        "tld": [".fi"],
        "currencies": ["eur"],
        "callingCodes": ["358"],
        "languages": ["fin","swe"]
    },
    {
        "alpha2": "fj",
        "alpha3": "fji",
        "name": { "common": "Fiji", "official": "Republic of Fiji" },
        "tld": [".fj"],
        "currencies": ["fjd"],
        "callingCodes": ["679"],
        "languages": ["eng","fij","hif"]
    },
    {
        "alpha2": "fk",
        "alpha3": "flk",
        "name": { "common": "Falkland Islands", "official": "Falkland Islands" },
        "tld": [".fk"],
        "currencies": ["fkp"],
        "callingCodes": ["500"],
        "languages": ["eng"]
    },
    {
        "alpha2": "fr",
        "alpha3": "fra",
        "name": { "common": "France", "official": "French Republic" },
        "tld": [".fr"],
        "currencies": ["eur"],
        "callingCodes": ["33"],
        "languages": ["fra"]
    },
    {
        "alpha2": "fo",
        "alpha3": "fro",
        "name": { "common": "Faroe Islands", "official": "Faroe Islands" },
        "tld": [".fo"],
        "currencies": ["dkk"],
        "callingCodes": ["298"],
        "languages": ["dan","fao"]
    },
    {
        "alpha2": "fm",
        "alpha3": "fsm",
        "name": { "common": "Micronesia", "official": "Federated States of Micronesia" },
        "tld": [".fm"],
        "currencies": ["usd"],
        "callingCodes": ["691"],
        "languages": ["eng"]
    },
    {
        "alpha2": "ga",
        "alpha3": "gab",
        "name": { "common": "Gabon", "official": "Gabonese Republic" },
        "tld": [".ga"],
        "currencies": ["xaf"],
        "callingCodes": ["241"],
        "languages": ["fra"]
    },
    {
        "alpha2": "gb",
        "alpha3": "gbr",
        "name": { "common": "United Kingdom", "official": "United Kingdom of Great Britain and Northern Ireland" },
        "tld": [".uk"],
        "currencies": ["gbp"],
        "callingCodes": ["44"],
        "languages": ["eng"]
    },
    {
        "alpha2": "ge",
        "alpha3": "geo",
        "name": { "common": "Georgia", "official": "Georgia" },
        "tld": [".ge"],
        "currencies": ["gel"],
        "callingCodes": ["995"],
        "languages": ["kat"]
    },
    {
        "alpha2": "gg",
        "alpha3": "ggy",
        "name": { "common": "Guernsey", "official": "Bailiwick of Guernsey" },
        "tld": [".gg"],
        "currencies": ["gbp"],
        "callingCodes": ["44"],
        "languages": ["eng","fra","nfr"]
    },
    {
        "alpha2": "gh",
        "alpha3": "gha",
        "name": { "common": "Ghana", "official": "Republic of Ghana" },
        "tld": [".gh"],
        "currencies": ["ghs"],
        "callingCodes": ["233"],
        "languages": ["eng"]
    },
    {
        "alpha2": "gi",
        "alpha3": "gib",
        "name": { "common": "Gibraltar", "official": "Gibraltar" },
        "tld": [".gi"],
        "currencies": ["gip"],
        "callingCodes": ["350"],
        "languages": ["eng"]
    },
    {
        "alpha2": "gn",
        "alpha3": "gin",
        "name": { "common": "Guinea", "official": "Republic of Guinea" },
        "tld": [".gn"],
        "currencies": ["gnf"],
        "callingCodes": ["224"],
        "languages": ["fra"]
    },
    {
        "alpha2": "gp",
        "alpha3": "glp",
        "name": { "common": "Guadeloupe", "official": "Guadeloupe" },
        "tld": [".gp"],
        "currencies": ["eur"],
        "callingCodes": ["590"],
        "languages": ["fra"]
    },
    {
        "alpha2": "gm",
        "alpha3": "gmb",
        "name": { "common": "Gambia", "official": "Republic of the Gambia" },
        "tld": [".gm"],
        "currencies": ["gmd"],
        "callingCodes": ["220"],
        "languages": ["eng"]
    },
    {
        "alpha2": "gw",
        "alpha3": "gnb",
        "name": { "common": "Guinea-Bissau", "official": "Republic of Guinea-Bissau" },
        "tld": [".gw"],
        "currencies": ["xof"],
        "callingCodes": ["245"],
        "languages": ["por"]
    },
    {
        "alpha2": "gq",
        "alpha3": "gnq",
        "name": { "common": "Equatorial Guinea", "official": "Republic of Equatorial Guinea" },
        "tld": [".gq"],
        "currencies": ["xaf"],
        "callingCodes": ["240"],
        "languages": ["fra","por","spa"]
    },
    {
        "alpha2": "gr",
        "alpha3": "grc",
        "name": { "common": "Greece", "official": "Hellenic Republic" },
        "tld": [".gr"],
        "currencies": ["eur"],
        "callingCodes": ["30"],
        "languages": ["ell"]
    },
    {
        "alpha2": "gd",
        "alpha3": "grd",
        "name": { "common": "Grenada", "official": "Grenada" },
        "tld": [".gd"],
        "currencies": ["xcd"],
        "callingCodes": ["1473"],
        "languages": ["eng"]
    },
    {
        "alpha2": "gl",
        "alpha3": "grl",
        "name": { "common": "Greenland", "official": "Greenland" },
        "tld": [".gl"],
        "currencies": ["dkk"],
        "callingCodes": ["299"],
        "languages": ["kal"]
    },
    {
        "alpha2": "gt",
        "alpha3": "gtm",
        "name": { "common": "Guatemala", "official": "Republic of Guatemala" },
        "tld": [".gt"],
        "currencies": ["gtq"],
        "callingCodes": ["502"],
        "languages": ["spa"]
    },
    {
        "alpha2": "gf",
        "alpha3": "guf",
        "name": { "common": "French Guiana", "official": "Guiana" },
        "tld": [".gf"],
        "currencies": ["eur"],
        "callingCodes": ["594"],
        "languages": ["fra"]
    },
    {
        "alpha2": "gu",
        "alpha3": "gum",
        "name": { "common": "Guam", "official": "Guam" },
        "tld": [".gu"],
        "currencies": ["usd"],
        "callingCodes": ["1671"],
        "languages": ["cha","eng","spa"]
    },
    {
        "alpha2": "gy",
        "alpha3": "guy",
        "name": { "common": "Guyana", "official": "Co-operative Republic of Guyana" },
        "tld": [".gy"],
        "currencies": ["gyd"],
        "callingCodes": ["592"],
        "languages": ["eng"]
    },
    {
        "alpha2": "hk",
        "alpha3": "hkg",
        "name": { "common": "Hong Kong", "official": "Hong Kong Special Administrative Region of the People's Republic of China" },
        "tld": [".hk",".香港"],
        "currencies": ["hkd"],
        "callingCodes": ["852"],
        "languages": ["eng","zho"]
    },
    {
        "alpha2": "hm",
        "alpha3": "hmd",
        "name": { "common": "Heard Island and McDonald Islands", "official": "Heard Island and McDonald Islands" },
        "tld": [".hm",".aq"],
        "currencies": ["aud"],
        "callingCodes": [],
        "languages": ["eng"]
    },
    {
        "alpha2": "hn",
        "alpha3": "hnd",
        "name": { "common": "Honduras", "official": "Republic of Honduras" },
        "tld": [".hn"],
        "currencies": ["hnl"],
        "callingCodes": ["504"],
        "languages": ["spa"]
    },
    {
        "alpha2": "hr",
        "alpha3": "hrv",
        "name": { "common": "Croatia", "official": "Republic of Croatia" },
        "tld": [".hr"],
        "currencies": ["hrk"],
        "callingCodes": ["385"],
        "languages": ["hrv"]
    },
    {
        "alpha2": "ht",
        "alpha3": "hti",
        "name": { "common": "Haiti", "official": "Republic of Haiti" },
        "tld": [".ht"],
        "currencies": ["htg","usd"],
        "callingCodes": ["509"],
        "languages": ["fra","hat"]
    },
    {
        "alpha2": "hu",
        "alpha3": "hun",
        "name": { "common": "Hungary", "official": "Hungary" },
        "tld": [".hu"],
        "currencies": ["huf"],
        "callingCodes": ["36"],
        "languages": ["hun"]
    },
    {
        "alpha2": "id",
        "alpha3": "idn",
        "name": { "common": "Indonesia", "official": "Republic of Indonesia" },
        "tld": [".id"],
        "currencies": ["idr"],
        "callingCodes": ["62"],
        "languages": ["ind"]
    },
    {
        "alpha2": "im",
        "alpha3": "imn",
        "name": { "common": "Isle of Man", "official": "Isle of Man" },
        "tld": [".im"],
        "currencies": ["gbp"],
        "callingCodes": ["44"],
        "languages": ["eng","glv"]
    },
    {
        "alpha2": "in",
        "alpha3": "ind",
        "name": { "common": "India", "official": "Republic of India" },
        "tld": [".in"],
        "currencies": ["inr"],
        "callingCodes": ["91"],
        "languages": ["eng","hin","tam"]
    },
    {
        "alpha2": "io",
        "alpha3": "iot",
        "name": { "common": "British Indian Ocean Territory", "official": "British Indian Ocean Territory" },
        "tld": [".io"],
        "currencies": ["usd"],
        "callingCodes": ["246"],
        "languages": ["eng"]
    },
    {
        "alpha2": "ie",
        "alpha3": "irl",
        "name": { "common": "Ireland", "official": "Republic of Ireland" },
        "tld": [".ie"],
        "currencies": ["eur"],
        "callingCodes": ["353"],
        "languages": ["eng","gle"]
    },
    {
        "alpha2": "ir",
        "alpha3": "irn",
        "name": { "common": "Iran", "official": "Islamic Republic of Iran" },
        "tld": [".ir","ایران."],
        "currencies": ["irr"],
        "callingCodes": ["98"],
        "languages": ["fas"]
    },
    {
        "alpha2": "iq",
        "alpha3": "irq",
        "name": { "common": "Iraq", "official": "Republic of Iraq" },
        "tld": [".iq"],
        "currencies": ["iqd"],
        "callingCodes": ["964"],
        "languages": ["ara","arc","ckb"]
    },
    {
        "alpha2": "is",
        "alpha3": "isl",
        "name": { "common": "Iceland", "official": "Iceland" },
        "tld": [".is"],
        "currencies": ["isk"],
        "callingCodes": ["354"],
        "languages": ["isl"]
    },
    {
        "alpha2": "il",
        "alpha3": "isr",
        "name": { "common": "Israel", "official": "State of Israel" },
        "tld": [".il"],
        "currencies": ["ils"],
        "callingCodes": ["972"],
        "languages": ["ara","heb"]
    },
    {
        "alpha2": "it",
        "alpha3": "ita",
        "name": { "common": "Italy", "official": "Italian Republic" },
        "tld": [".it"],
        "currencies": ["eur"],
        "callingCodes": ["39"],
        "languages": ["bar","ita","srd"]
    },
    {
        "alpha2": "jm",
        "alpha3": "jam",
        "name": { "common": "Jamaica", "official": "Jamaica" },
        "tld": [".jm"],
        "currencies": ["jmd"],
        "callingCodes": ["1876"],
        "languages": ["eng","jam"]
    },
    {
        "alpha2": "je",
        "alpha3": "jey",
        "name": { "common": "Jersey", "official": "Bailiwick of Jersey" },
        "tld": [".je"],
        "currencies": ["gbp"],
        "callingCodes": ["44"],
        "languages": ["eng","fra","nrf"]
    },
    {
        "alpha2": "jo",
        "alpha3": "jor",
        "name": { "common": "Jordan", "official": "Hashemite Kingdom of Jordan" },
        "tld": [".jo","الاردن."],
        "currencies": ["jod"],
        "callingCodes": ["962"],
        "languages": ["ara"]
    },
    {
        "alpha2": "jp",
        "alpha3": "jpn",
        "name": { "common": "Japan", "official": "Japan" },
        "tld": [".jp",".みんな"],
        "currencies": ["jpy"],
        "callingCodes": ["81"],
        "languages": ["jpn"]
    },
    {
        "alpha2": "kz",
        "alpha3": "kaz",
        "name": { "common": "Kazakhstan", "official": "Republic of Kazakhstan" },
        "tld": [".kz",".қаз"],
        "currencies": ["kzt"],
        "callingCodes": ["76","77"],
        "languages": ["kaz","rus"]
    },
    {
        "alpha2": "ke",
        "alpha3": "ken",
        "name": { "common": "Kenya", "official": "Republic of Kenya" },
        "tld": [".ke"],
        "currencies": ["kes"],
        "callingCodes": ["254"],
        "languages": ["eng","swa"]
    },
    {
        "alpha2": "kg",
        "alpha3": "kgz",
        "name": { "common": "Kyrgyzstan", "official": "Kyrgyz Republic" },
        "tld": [".kg"],
        "currencies": ["kgs"],
        "callingCodes": ["996"],
        "languages": ["kir","rus"]
    },
    {
        "alpha2": "kh",
        "alpha3": "khm",
        "name": { "common": "Cambodia", "official": "Kingdom of Cambodia" },
        "tld": [".kh"],
        "currencies": ["khr"],
        "callingCodes": ["855"],
        "languages": ["khm"]
    },
    {
        "alpha2": "ki",
        "alpha3": "kir",
        "name": { "common": "Kiribati", "official": "Independent and Sovereign Republic of Kiribati" },
        "tld": [".ki"],
        "currencies": ["aud"],
        "callingCodes": ["686"],
        "languages": ["eng","gil"]
    },
    {
        "alpha2": "kn",
        "alpha3": "kna",
        "name": { "common": "Saint Kitts and Nevis", "official": "Federation of Saint Christopher and Nevisa" },
        "tld": [".kn"],
        "currencies": ["xcd"],
        "callingCodes": ["1869"],
        "languages": ["eng"]
    },
    {
        "alpha2": "kr",
        "alpha3": "kor",
        "name": { "common": "South Korea", "official": "Republic of Korea" },
        "tld": [".kr",".한국"],
        "currencies": ["krw"],
        "callingCodes": ["82"],
        "languages": ["kor"]
    },
    {
        "alpha2": "xk",
        "alpha3": "kos",
        "name": { "common": "Kosovo", "official": "Republic of Kosovo" },
        "tld": [],
        "currencies": ["eur"],
        "callingCodes": ["383"],
        "languages": ["sqi","srp"]
    },
    {
        "alpha2": "kw",
        "alpha3": "kwt",
        "name": { "common": "Kuwait", "official": "State of Kuwait" },
        "tld": [".kw"],
        "currencies": ["kwd"],
        "callingCodes": ["965"],
        "languages": ["ara"]
    },
    {
        "alpha2": "la",
        "alpha3": "lao",
        "name": { "common": "Laos", "official": "Lao People's Democratic Republic" },
        "tld": [".la"],
        "currencies": ["lak"],
        "callingCodes": ["856"],
        "languages": ["lao"]
    },
    {
        "alpha2": "lb",
        "alpha3": "lbn",
        "name": { "common": "Lebanon", "official": "Lebanese Republic" },
        "tld": [".lb"],
        "currencies": ["lbp"],
        "callingCodes": ["961"],
        "languages": ["ara","fra"]
    },
    {
        "alpha2": "lr",
        "alpha3": "lbr",
        "name": { "common": "Liberia", "official": "Republic of Liberia" },
        "tld": [".lr"],
        "currencies": ["lrd"],
        "callingCodes": ["231"],
        "languages": ["eng"]
    },
    {
        "alpha2": "ly",
        "alpha3": "lby",
        "name": { "common": "Libya", "official": "State of Libya" },
        "tld": [".ly"],
        "currencies": ["lyd"],
        "callingCodes": ["218"],
        "languages": ["ara"]
    },
    {
        "alpha2": "lc",
        "alpha3": "lca",
        "name": { "common": "Saint Lucia", "official": "Saint Lucia" },
        "tld": [".lc"],
        "currencies": ["xcd"],
        "callingCodes": ["1758"],
        "languages": ["eng"]
    },
    {
        "alpha2": "li",
        "alpha3": "lie",
        "name": { "common": "Liechtenstein", "official": "Principality of Liechtenstein" },
        "tld": [".li"],
        "currencies": ["chf"],
        "callingCodes": ["423"],
        "languages": ["deu"]
    },
    {
        "alpha2": "lk",
        "alpha3": "lka",
        "name": { "common": "Sri Lanka", "official": "Democratic Socialist Republic of Sri Lanka" },
        "tld": [".lk",".இலங்கை",".ලංකා"],
        "currencies": ["lkr"],
        "callingCodes": ["94"],
        "languages": ["sin","tam"]
    },
    {
        "alpha2": "ls",
        "alpha3": "lso",
        "name": { "common": "Lesotho", "official": "Kingdom of Lesotho" },
        "tld": [".ls"],
        "currencies": ["lsl","zar"],
        "callingCodes": ["266"],
        "languages": ["eng","sot"]
    },
    {
        "alpha2": "lt",
        "alpha3": "ltu",
        "name": { "common": "Lithuania", "official": "Republic of Lithuania" },
        "tld": [".lt"],
        "currencies": ["eur"],
        "callingCodes": ["370"],
        "languages": ["lit"]
    },
    {
        "alpha2": "lu",
        "alpha3": "lux",
        "name": { "common": "Luxembourg", "official": "Grand Duchy of Luxembourg" },
        "tld": [".lu"],
        "currencies": ["eur"],
        "callingCodes": ["352"],
        "languages": ["deu","fra","ltz"]
    },
    {
        "alpha2": "lv",
        "alpha3": "lva",
        "name": { "common": "Latvia", "official": "Republic of Latvia" },
        "tld": [".lv"],
        "currencies": ["eur"],
        "callingCodes": ["371"],
        "languages": ["lav"]
    },
    {
        "alpha2": "mo",
        "alpha3": "mac",
        "name": { "common": "Macau", "official": "Macao Special Administrative Region of the People's Republic of China" },
        "tld": [".mo"],
        "currencies": ["mop"],
        "callingCodes": ["853"],
        "languages": ["por","zho"]
    },
    {
        "alpha2": "mf",
        "alpha3": "maf",
        "name": { "common": "Saint Martin", "official": "Saint Martin" },
        "tld": [".fr",".gp"],
        "currencies": ["eur"],
        "callingCodes": ["590"],
        "languages": ["fra"]
    },
    {
        "alpha2": "ma",
        "alpha3": "mar",
        "name": { "common": "Morocco", "official": "Kingdom of Morocco" },
        "tld": [".ma","المغرب."],
        "currencies": ["mad"],
        "callingCodes": ["212"],
        "languages": ["ara","ber"]
    },
    {
        "alpha2": "mc",
        "alpha3": "mco",
        "name": { "common": "Monaco", "official": "Principality of Monaco" },
        "tld": [".mc"],
        "currencies": ["eur"],
        "callingCodes": ["377"],
        "languages": ["fra"]
    },
    {
        "alpha2": "md",
        "alpha3": "mda",
        "name": { "common": "Moldova", "official": "Republic of Moldova" },
        "tld": [".md"],
        "currencies": ["mdl"],
        "callingCodes": ["373"],
        "languages": ["ron"]
    },
    {
        "alpha2": "mg",
        "alpha3": "mdg",
        "name": { "common": "Madagascar", "official": "Republic of Madagascar" },
        "tld": [".mg"],
        "currencies": ["mga"],
        "callingCodes": ["261"],
        "languages": ["fra","mlg"]
    },
    {
        "alpha2": "mv",
        "alpha3": "mdv",
        "name": { "common": "Maldives", "official": "Republic of the Maldives" },
        "tld": [".mv"],
        "currencies": ["mvr"],
        "callingCodes": ["960"],
        "languages": ["div"]
    },
    {
        "alpha2": "mx",
        "alpha3": "mex",
        "name": { "common": "Mexico", "official": "United Mexican States" },
        "tld": [".mx"],
        "currencies": ["mxn"],
        "callingCodes": ["52"],
        "languages": ["spa"]
    },
    {
        "alpha2": "mh",
        "alpha3": "mhl",
        "name": { "common": "Marshall Islands", "official": "Republic of the Marshall Islands" },
        "tld": [".mh"],
        "currencies": ["usd"],
        "callingCodes": ["692"],
        "languages": ["eng","mah"]
    },
    {
        "alpha2": "mk",
        "alpha3": "mkd",
        "name": { "common": "Macedonia", "official": "Republic of Macedonia" },
        "tld": [".mk"],
        "currencies": ["mkd"],
        "callingCodes": ["389"],
        "languages": ["mkd"]
    },
    {
        "alpha2": "ml",
        "alpha3": "mli",
        "name": { "common": "Mali", "official": "Republic of Mali" },
        "tld": [".ml"],
        "currencies": ["xof"],
        "callingCodes": ["223"],
        "languages": ["fra"]
    },
    {
        "alpha2": "mt",
        "alpha3": "mlt",
        "name": { "common": "Malta", "official": "Republic of Malta" },
        "tld": [".mt"],
        "currencies": ["eur"],
        "callingCodes": ["356"],
        "languages": ["eng","mlt"]
    },
    {
        "alpha2": "mm",
        "alpha3": "mmr",
        "name": { "common": "Myanmar", "official": "Republic of the Union of Myanmar" },
        "tld": [".mm"],
        "currencies": ["mmk"],
        "callingCodes": ["95"],
        "languages": ["mya"]
    },
    {
        "alpha2": "me",
        "alpha3": "mne",
        "name": { "common": "Montenegro", "official": "Montenegro" },
        "tld": [".me"],
        "currencies": ["eur"],
        "callingCodes": ["382"],
        "languages": ["srp"]
    },
    {
        "alpha2": "mn",
        "alpha3": "mng",
        "name": { "common": "Mongolia", "official": "Mongolia" },
        "tld": [".mn"],
        "currencies": ["mnt"],
        "callingCodes": ["976"],
        "languages": ["mon"]
    },
    {
        "alpha2": "mp",
        "alpha3": "mnp",
        "name": { "common": "Northern Mariana Islands", "official": "Commonwealth of the Northern Mariana Islands" },
        "tld": [".mp"],
        "currencies": ["usd"],
        "callingCodes": ["1670"],
        "languages": ["cal","cha","eng"]
    },
    {
        "alpha2": "mz",
        "alpha3": "moz",
        "name": { "common": "Mozambique", "official": "Republic of Mozambique" },
        "tld": [".mz"],
        "currencies": ["mzn"],
        "callingCodes": ["258"],
        "languages": ["por"]
    },
    {
        "alpha2": "mr",
        "alpha3": "mrt",
        "name": { "common": "Mauritania", "official": "Islamic Republic of Mauritania" },
        "tld": [".mr"],
        "currencies": ["mro"],
        "callingCodes": ["222"],
        "languages": ["ara"]
    },
    {
        "alpha2": "ms",
        "alpha3": "msr",
        "name": { "common": "Montserrat", "official": "Montserrat" },
        "tld": [".ms"],
        "currencies": ["xcd"],
        "callingCodes": ["1664"],
        "languages": ["eng"]
    },
    {
        "alpha2": "mq",
        "alpha3": "mtq",
        "name": { "common": "Martinique", "official": "Martinique" },
        "tld": [".mq"],
        "currencies": ["eur"],
        "callingCodes": ["596"],
        "languages": ["fra"]
    },
    {
        "alpha2": "mu",
        "alpha3": "mus",
        "name": { "common": "Mauritius", "official": "Republic of Mauritius" },
        "tld": [".mu"],
        "currencies": ["mur"],
        "callingCodes": ["230"],
        "languages": ["eng","fra","mfe"]
    },
    {
        "alpha2": "mw",
        "alpha3": "mwi",
        "name": { "common": "Malawi", "official": "Republic of Malawi" },
        "tld": [".mw"],
        "currencies": ["mwk"],
        "callingCodes": ["265"],
        "languages": ["eng","nya"]
    },
    {
        "alpha2": "my",
        "alpha3": "mys",
        "name": { "common": "Malaysia", "official": "Malaysia" },
        "tld": [".my"],
        "currencies": ["myr"],
        "callingCodes": ["60"],
        "languages": ["eng","msa"]
    },
    {
        "alpha2": "yt",
        "alpha3": "myt",
        "name": { "common": "Mayotte", "official": "Department of Mayotte" },
        "tld": [".yt"],
        "currencies": ["eur"],
        "callingCodes": ["262"],
        "languages": ["fra"]
    },
    {
        "alpha2": "na",
        "alpha3": "nam",
        "name": { "common": "Namibia", "official": "Republic of Namibia" },
        "tld": [".na"],
        "currencies": ["nad","zar"],
        "callingCodes": ["264"],
        "languages": ["afr","deu","eng","her","hgm","kwn","loz","ndo","tsn"]
    },
    {
        "alpha2": "nc",
        "alpha3": "ncl",
        "name": { "common": "New Caledonia", "official": "New Caledonia" },
        "tld": [".nc"],
        "currencies": ["xpf"],
        "callingCodes": ["687"],
        "languages": ["fra"]
    },
    {
        "alpha2": "ne",
        "alpha3": "ner",
        "name": { "common": "Niger", "official": "Republic of Niger" },
        "tld": [".ne"],
        "currencies": ["xof"],
        "callingCodes": ["227"],
        "languages": ["fra"]
    },
    {
        "alpha2": "nf",
        "alpha3": "nfk",
        "name": { "common": "Norfolk Island", "official": "Territory of Norfolk Island" },
        "tld": [".nf"],
        "currencies": ["aud"],
        "callingCodes": ["672"],
        "languages": ["eng","pih"]
    },
    {
        "alpha2": "ng",
        "alpha3": "nga",
        "name": { "common": "Nigeria", "official": "Federal Republic of Nigeria" },
        "tld": [".ng"],
        "currencies": ["ngn"],
        "callingCodes": ["234"],
        "languages": ["eng"]
    },
    {
        "alpha2": "ni",
        "alpha3": "nic",
        "name": { "common": "Nicaragua", "official": "Republic of Nicaragua" },
        "tld": [".ni"],
        "currencies": ["nio"],
        "callingCodes": ["505"],
        "languages": ["spa"]
    },
    {
        "alpha2": "nu",
        "alpha3": "niu",
        "name": { "common": "Niue", "official": "Niue" },
        "tld": [".nu"],
        "currencies": ["nzd"],
        "callingCodes": ["683"],
        "languages": ["eng","niu"]
    },
    {
        "alpha2": "nl",
        "alpha3": "nld",
        "name": { "common": "Netherlands", "official": "Netherlands" },
        "tld": [".nl"],
        "currencies": ["eur"],
        "callingCodes": ["31"],
        "languages": ["nld"]
    },
    {
        "alpha2": "no",
        "alpha3": "nor",
        "name": { "common": "Norway", "official": "Kingdom of Norway" },
        "tld": [".no"],
        "currencies": ["nok"],
        "callingCodes": ["47"],
        "languages": ["nno","nob","smi"]
    },
    {
        "alpha2": "np",
        "alpha3": "npl",
        "name": { "common": "Nepal", "official": "Federal Democratic Republic of Nepal" },
        "tld": [".np"],
        "currencies": ["npr"],
        "callingCodes": ["977"],
        "languages": ["nep"]
    },
    {
        "alpha2": "nr",
        "alpha3": "nru",
        "name": { "common": "Nauru", "official": "Republic of Nauru" },
        "tld": [".nr"],
        "currencies": ["aud"],
        "callingCodes": ["674"],
        "languages": ["eng","nau"]
    },
    {
        "alpha2": "nz",
        "alpha3": "nzl",
        "name": { "common": "New Zealand", "official": "New Zealand" },
        "tld": [".nz"],
        "currencies": ["nzd"],
        "callingCodes": ["64"],
        "languages": ["eng","mri","nzs"]
    },
    {
        "alpha2": "om",
        "alpha3": "omn",
        "name": { "common": "Oman", "official": "Sultanate of Oman" },
        "tld": [".om"],
        "currencies": ["omr"],
        "callingCodes": ["968"],
        "languages": ["ara"]
    },
    {
        "alpha2": "pk",
        "alpha3": "pak",
        "name": { "common": "Pakistan", "official": "Islamic Republic of Pakistan" },
        "tld": [".pk"],
        "currencies": ["pkr"],
        "callingCodes": ["92"],
        "languages": ["eng","urd"]
    },
    {
        "alpha2": "pa",
        "alpha3": "pan",
        "name": { "common": "Panama", "official": "Republic of Panama" },
        "tld": [".pa"],
        "currencies": ["pab","usd"],
        "callingCodes": ["507"],
        "languages": ["spa"]
    },
    {
        "alpha2": "pn",
        "alpha3": "pcn",
        "name": { "common": "Pitcairn Islands", "official": "Pitcairn Group of Islands" },
        "tld": [".pn"],
        "currencies": ["nzd"],
        "callingCodes": ["64"],
        "languages": ["eng"]
    },
    {
        "alpha2": "pe",
        "alpha3": "per",
        "name": { "common": "Peru", "official": "Republic of Peru" },
        "tld": [".pe"],
        "currencies": ["pen"],
        "callingCodes": ["51"],
        "languages": ["aym","que","spa"]
    },
    {
        "alpha2": "ph",
        "alpha3": "phl",
        "name": { "common": "Philippines", "official": "Republic of the Philippines" },
        "tld": [".ph"],
        "currencies": ["php"],
        "callingCodes": ["63"],
        "languages": ["eng","fil"]
    },
    {
        "alpha2": "pw",
        "alpha3": "plw",
        "name": { "common": "Palau", "official": "Republic of Palau" },
        "tld": [".pw"],
        "currencies": ["usd"],
        "callingCodes": ["680"],
        "languages": ["eng","pau"]
    },
    {
        "alpha2": "pg",
        "alpha3": "png",
        "name": { "common": "Papua New Guinea", "official": "Independent State of Papua New Guinea" },
        "tld": [".pg"],
        "currencies": ["pgk"],
        "callingCodes": ["675"],
        "languages": ["eng","hmo","tpi"]
    },
    {
        "alpha2": "pl",
        "alpha3": "pol",
        "name": { "common": "Poland", "official": "Republic of Poland" },
        "tld": [".pl"],
        "currencies": ["pln"],
        "callingCodes": ["48"],
        "languages": ["pol"]
    },
    {
        "alpha2": "pr",
        "alpha3": "pri",
        "name": { "common": "Puerto Rico", "official": "Commonwealth of Puerto Rico" },
        "tld": [".pr"],
        "currencies": ["usd"],
        "callingCodes": ["1787","1939"],
        "languages": ["eng","spa"]
    },
    {
        "alpha2": "kp",
        "alpha3": "prk",
        "name": { "common": "North Korea", "official": "Democratic People's Republic of Korea" },
        "tld": [".kp"],
        "currencies": ["kpw"],
        "callingCodes": ["850"],
        "languages": ["kor"]
    },
    {
        "alpha2": "pt",
        "alpha3": "prt",
        "name": { "common": "Portugal", "official": "Portuguese Republic" },
        "tld": [".pt"],
        "currencies": ["eur"],
        "callingCodes": ["351"],
        "languages": ["por"]
    },
    {
        "alpha2": "py",
        "alpha3": "pry",
        "name": { "common": "Paraguay", "official": "Republic of Paraguay" },
        "tld": [".py"],
        "currencies": ["pyg"],
        "callingCodes": ["595"],
        "languages": ["grn","spa"]
    },
    {
        "alpha2": "ps",
        "alpha3": "pse",
        "name": { "common": "Palestine", "official": "State of Palestine" },
        "tld": [".ps","فلسطين."],
        "currencies": ["ils"],
        "callingCodes": ["970"],
        "languages": ["ara"]
    },
    {
        "alpha2": "pf",
        "alpha3": "pyf",
        "name": { "common": "French Polynesia", "official": "French Polynesia" },
        "tld": [".pf"],
        "currencies": ["xpf"],
        "callingCodes": ["689"],
        "languages": ["fra"]
    },
    {
        "alpha2": "qa",
        "alpha3": "qat",
        "name": { "common": "Qatar", "official": "State of Qatar" },
        "tld": [".qa","قطر."],
        "currencies": ["qar"],
        "callingCodes": ["974"],
        "languages": ["ara"]
    },
    {
        "alpha2": "re",
        "alpha3": "reu",
        "name": { "common": "Réunion", "official": "Réunion Island" },
        "tld": [".re"],
        "currencies": ["eur"],
        "callingCodes": ["262"],
        "languages": ["fra"]
    },
    {
        "alpha2": "ro",
        "alpha3": "rou",
        "name": { "common": "Romania", "official": "Romania" },
        "tld": [".ro"],
        "currencies": ["ron"],
        "callingCodes": ["40"],
        "languages": ["ron"]
    },
    {
        "alpha2": "ru",
        "alpha3": "rus",
        "name": { "common": "Russia", "official": "Russian Federation" },
        "tld": [".ru",".su",".рф"],
        "currencies": ["rub"],
        "callingCodes": ["7"],
        "languages": ["rus"]
    },
    {
        "alpha2": "rw",
        "alpha3": "rwa",
        "name": { "common": "Rwanda", "official": "Republic of Rwanda" },
        "tld": [".rw"],
        "currencies": ["rwf"],
        "callingCodes": ["250"],
        "languages": ["eng","fra","kin"]
    },
    {
        "alpha2": "sa",
        "alpha3": "sau",
        "name": { "common": "Saudi Arabia", "official": "Kingdom of Saudi Arabia" },
        "tld": [".sa",".السعودية"],
        "currencies": ["sar"],
        "callingCodes": ["966"],
        "languages": ["ara"]
    },
    {
        "alpha2": "sd",
        "alpha3": "sdn",
        "name": { "common": "Sudan", "official": "Republic of the Sudan" },
        "tld": [".sd"],
        "currencies": ["sdg"],
        "callingCodes": ["249"],
        "languages": ["ara","eng"]
    },
    {
        "alpha2": "sn",
        "alpha3": "sen",
        "name": { "common": "Senegal", "official": "Republic of Senegal" },
        "tld": [".sn"],
        "currencies": ["xof"],
        "callingCodes": ["221"],
        "languages": ["fra"]
    },
    {
        "alpha2": "sg",
        "alpha3": "sgp",
        "name": { "common": "Singapore", "official": "Republic of Singapore" },
        "tld": [".sg",".新加坡",".சிங்கப்பூர்"],
        "currencies": ["sgd"],
        "callingCodes": ["65"],
        "languages": ["cmn","eng","msa","tam"]
    },
    {
        "alpha2": "gs",
        "alpha3": "sgs",
        "name": { "common": "South Georgia", "official": "South Georgia and the South Sandwich Islands" },
        "tld": [".gs"],
        "currencies": ["gbp"],
        "callingCodes": ["500"],
        "languages": ["eng"]
    },
    {
        "alpha2": "sj",
        "alpha3": "sjm",
        "name": { "common": "Svalbard and Jan Mayen", "official": "Svalbard og Jan Mayen" },
        "tld": [".sj"],
        "currencies": ["nok"],
        "callingCodes": ["4779"],
        "languages": ["nor"]
    },
    {
        "alpha2": "sb",
        "alpha3": "slb",
        "name": { "common": "Solomon Islands", "official": "Solomon Islands" },
        "tld": [".sb"],
        "currencies": ["sbd"],
        "callingCodes": ["677"],
        "languages": ["eng"]
    },
    {
        "alpha2": "sl",
        "alpha3": "sle",
        "name": { "common": "Sierra Leone", "official": "Republic of Sierra Leone" },
        "tld": [".sl"],
        "currencies": ["sll"],
        "callingCodes": ["232"],
        "languages": ["eng"]
    },
    {
        "alpha2": "sv",
        "alpha3": "slv",
        "name": { "common": "El Salvador", "official": "Republic of El Salvador" },
        "tld": [".sv"],
        "currencies": ["svc","usd"],
        "callingCodes": ["503"],
        "languages": ["spa"]
    },
    {
        "alpha2": "sm",
        "alpha3": "smr",
        "name": { "common": "San Marino", "official": "Most Serene Republic of San Marino" },
        "tld": [".sm"],
        "currencies": ["eur"],
        "callingCodes": ["378"],
        "languages": ["ita"]
    },
    {
        "alpha2": "so",
        "alpha3": "som",
        "name": { "common": "Somalia", "official": "Federal Republic of Somalia" },
        "tld": [".so"],
        "currencies": ["sos"],
        "callingCodes": ["252"],
        "languages": ["ara","som"]
    },
    {
        "alpha2": "pm",
        "alpha3": "spm",
        "name": { "common": "Saint Pierre and Miquelon", "official": "Saint Pierre and Miquelon" },
        "tld": [".pm"],
        "currencies": ["eur"],
        "callingCodes": ["508"],
        "languages": ["fra"]
    },
    {
        "alpha2": "rs",
        "alpha3": "srb",
        "name": { "common": "Serbia", "official": "Republic of Serbia" },
        "tld": [".rs",".срб"],
        "currencies": ["rsd"],
        "callingCodes": ["381"],
        "languages": ["srp"]
    },
    {
        "alpha2": "ss",
        "alpha3": "ssd",
        "name": { "common": "South Sudan", "official": "Republic of South Sudan" },
        "tld": [".ss"],
        "currencies": ["ssp"],
        "callingCodes": ["211"],
        "languages": ["eng"]
    },
    {
        "alpha2": "st",
        "alpha3": "stp",
        "name": { "common": "São Tomé and Príncipe", "official": "Democratic Republic of São Tomé and Príncipe" },
        "tld": [".st"],
        "currencies": ["std"],
        "callingCodes": ["239"],
        "languages": ["por"]
    },
    {
        "alpha2": "sr",
        "alpha3": "sur",
        "name": { "common": "Suriname", "official": "Republic of Suriname" },
        "tld": [".sr"],
        "currencies": ["srd"],
        "callingCodes": ["597"],
        "languages": ["nld"]
    },
    {
        "alpha2": "sk",
        "alpha3": "svk",
        "name": { "common": "Slovakia", "official": "Slovak Republic" },
        "tld": [".sk"],
        "currencies": ["eur"],
        "callingCodes": ["421"],
        "languages": ["slk"]
    },
    {
        "alpha2": "si",
        "alpha3": "svn",
        "name": { "common": "Slovenia", "official": "Republic of Slovenia" },
        "tld": [".si"],
        "currencies": ["eur"],
        "callingCodes": ["386"],
        "languages": ["slv"]
    },
    {
        "alpha2": "se",
        "alpha3": "swe",
        "name": { "common": "Sweden", "official": "Kingdom of Sweden" },
        "tld": [".se"],
        "currencies": ["sek"],
        "callingCodes": ["46"],
        "languages": ["swe"]
    },
    {
        "alpha2": "sz",
        "alpha3": "swz",
        "name": { "common": "Swaziland", "official": "Kingdom of Swaziland" },
        "tld": [".sz"],
        "currencies": ["szl"],
        "callingCodes": ["268"],
        "languages": ["eng","ssw"]
    },
    {
        "alpha2": "sx",
        "alpha3": "sxm",
        "name": { "common": "Sint Maarten", "official": "Sint Maarten" },
        "tld": [".sx"],
        "currencies": ["ang"],
        "callingCodes": ["1721"],
        "languages": ["eng","fra","nld"]
    },
    {
        "alpha2": "sc",
        "alpha3": "syc",
        "name": { "common": "Seychelles", "official": "Republic of Seychelles" },
        "tld": [".sc"],
        "currencies": ["scr"],
        "callingCodes": ["248"],
        "languages": ["crs","eng","fra"]
    },
    {
        "alpha2": "sy",
        "alpha3": "syr",
        "name": { "common": "Syria", "official": "Syrian Arab Republic" },
        "tld": [".sy","سوريا."],
        "currencies": ["syp"],
        "callingCodes": ["963"],
        "languages": ["ara"]
    },
    {
        "alpha2": "tc",
        "alpha3": "tca",
        "name": { "common": "Turks and Caicos Islands", "official": "Turks and Caicos Islands" },
        "tld": [".tc"],
        "currencies": ["usd"],
        "callingCodes": ["1649"],
        "languages": ["eng"]
    },
    {
        "alpha2": "td",
        "alpha3": "tcd",
        "name": { "common": "Chad", "official": "Republic of Chad" },
        "tld": [".td"],
        "currencies": ["xaf"],
        "callingCodes": ["235"],
        "languages": ["ara","fra"]
    },
    {
        "alpha2": "tg",
        "alpha3": "tgo",
        "name": { "common": "Togo", "official": "Togolese Republic" },
        "tld": [".tg"],
        "currencies": ["xof"],
        "callingCodes": ["228"],
        "languages": ["fra"]
    },
    {
        "alpha2": "th",
        "alpha3": "tha",
        "name": { "common": "Thailand", "official": "Kingdom of Thailand" },
        "tld": [".th",".ไทย"],
        "currencies": ["thb"],
        "callingCodes": ["66"],
        "languages": ["tha"]
    },
    {
        "alpha2": "tj",
        "alpha3": "tjk",
        "name": { "common": "Tajikistan", "official": "Republic of Tajikistan" },
        "tld": [".tj"],
        "currencies": ["tjs"],
        "callingCodes": ["992"],
        "languages": ["rus","tgk"]
    },
    {
        "alpha2": "tk",
        "alpha3": "tkl",
        "name": { "common": "Tokelau", "official": "Tokelau" },
        "tld": [".tk"],
        "currencies": ["nzd"],
        "callingCodes": ["690"],
        "languages": ["eng","smo","tkl"]
    },
    {
        "alpha2": "tm",
        "alpha3": "tkm",
        "name": { "common": "Turkmenistan", "official": "Turkmenistan" },
        "tld": [".tm"],
        "currencies": ["tmt"],
        "callingCodes": ["993"],
        "languages": ["rus","tuk"]
    },
    {
        "alpha2": "tl",
        "alpha3": "tls",
        "name": { "common": "Timor-Leste", "official": "Democratic Republic of Timor-Leste" },
        "tld": [".tl"],
        "currencies": ["usd"],
        "callingCodes": ["670"],
        "languages": ["por","tet"]
    },
    {
        "alpha2": "to",
        "alpha3": "ton",
        "name": { "common": "Tonga", "official": "Kingdom of Tonga" },
        "tld": [".to"],
        "currencies": ["top"],
        "callingCodes": ["676"],
        "languages": ["eng","ton"]
    },
    {
        "alpha2": "tt",
        "alpha3": "tto",
        "name": { "common": "Trinidad and Tobago", "official": "Republic of Trinidad and Tobago" },
        "tld": [".tt"],
        "currencies": ["ttd"],
        "callingCodes": ["1868"],
        "languages": ["eng"]
    },
    {
        "alpha2": "tn",
        "alpha3": "tun",
        "name": { "common": "Tunisia", "official": "Tunisian Republic" },
        "tld": [".tn"],
        "currencies": ["tnd"],
        "callingCodes": ["216"],
        "languages": ["ara"]
    },
    {
        "alpha2": "tr",
        "alpha3": "tur",
        "name": { "common": "Turkey", "official": "Republic of Turkey" },
        "tld": [".tr"],
        "currencies": ["try"],
        "callingCodes": ["90"],
        "languages": ["tur"]
    },
    {
        "alpha2": "tv",
        "alpha3": "tuv",
        "name": { "common": "Tuvalu", "official": "Tuvalu" },
        "tld": [".tv"],
        "currencies": ["aud"],
        "callingCodes": ["688"],
        "languages": ["eng","tvl"]
    },
    {
        "alpha2": "tw",
        "alpha3": "twn",
        "name": { "common": "Taiwan", "official": "Republic of China" },
        "tld": [".tw",".台湾",".台灣"],
        "currencies": ["twd"],
        "callingCodes": ["886"],
        "languages": ["cmn"]
    },
    {
        "alpha2": "tz",
        "alpha3": "tza",
        "name": { "common": "Tanzania", "official": "United Republic of Tanzania" },
        "tld": [".tz"],
        "currencies": ["tzs"],
        "callingCodes": ["255"],
        "languages": ["eng","swa"]
    },
    {
        "alpha2": "ug",
        "alpha3": "uga",
        "name": { "common": "Uganda", "official": "Republic of Uganda" },
        "tld": [".ug"],
        "currencies": ["ugx"],
        "callingCodes": ["256"],
        "languages": ["eng","swa"]
    },
    {
        "alpha2": "ua",
        "alpha3": "ukr",
        "name": { "common": "Ukraine", "official": "Ukraine" },
        "tld": [".ua",".укр"],
        "currencies": ["uah"],
        "callingCodes": ["380"],
        "languages": ["rus","ukr"]
    },
    {
        "alpha2": "um",
        "alpha3": "umi",
        "name": { "common": "United States Minor Outlying Islands", "official": "United States Minor Outlying Islands" },
        "tld": [".us"],
        "currencies": ["usd"],
        "callingCodes": [],
        "languages": ["eng"]
    },
    {
        "alpha2": "uy",
        "alpha3": "ury",
        "name": { "common": "Uruguay", "official": "Oriental Republic of Uruguay" },
        "tld": [".uy"],
        "currencies": ["uyi","uyu"],
        "callingCodes": ["598"],
        "languages": ["spa"]
    },
    {
        "alpha2": "us",
        "alpha3": "usa",
        "name": { "common": "United States", "official": "United States of America" },
        "tld": [".us"],
        "currencies": ["usd","usn","uss"],
        "callingCodes": ["1"],
        "languages": ["eng"]
    },
    {
        "alpha2": "uz",
        "alpha3": "uzb",
        "name": { "common": "Uzbekistan", "official": "Republic of Uzbekistan" },
        "tld": [".uz"],
        "currencies": ["uzs"],
        "callingCodes": ["998"],
        "languages": ["rus","uzb"]
    },
    {
        "alpha2": "va",
        "alpha3": "vat",
        "name": { "common": "Vatican City", "official": "Vatican City State" },
        "tld": [".va"],
        "currencies": ["eur"],
        "callingCodes": ["3906698","379"],
        "languages": ["ita","lat"]
    },
    {
        "alpha2": "vc",
        "alpha3": "vct",
        "name": { "common": "Saint Vincent and the Grenadines", "official": "Saint Vincent and the Grenadines" },
        "tld": [".vc"],
        "currencies": ["xcd"],
        "callingCodes": ["1784"],
        "languages": ["eng"]
    },
    {
        "alpha2": "ve",
        "alpha3": "ven",
        "name": { "common": "Venezuela", "official": "Bolivarian Republic of Venezuela" },
        "tld": [".ve"],
        "currencies": ["vef"],
        "callingCodes": ["58"],
        "languages": ["spa"]
    },
    {
        "alpha2": "vg",
        "alpha3": "vgb",
        "name": { "common": "British Virgin Islands", "official": "Virgin Islands" },
        "tld": [".vg"],
        "currencies": ["usd"],
        "callingCodes": ["1284"],
        "languages": ["eng"]
    },
    {
        "alpha2": "vi",
        "alpha3": "vir",
        "name": { "common": "United States Virgin Islands", "official": "Virgin Islands of the United States" },
        "tld": [".vi"],
        "currencies": ["usd"],
        "callingCodes": ["1340"],
        "languages": ["eng"]
    },
    {
        "alpha2": "vn",
        "alpha3": "vnm",
        "name": { "common": "Vietnam", "official": "Socialist Republic of Vietnam" },
        "tld": [".vn"],
        "currencies": ["vnd"],
        "callingCodes": ["84"],
        "languages": ["vie"]
    },
    {
        "alpha2": "vu",
        "alpha3": "vut",
        "name": { "common": "Vanuatu", "official": "Republic of Vanuatu" },
        "tld": [".vu"],
        "currencies": ["vuv"],
        "callingCodes": ["678"],
        "languages": ["bis","eng","fra"]
    },
    {
        "alpha2": "wf",
        "alpha3": "wlf",
        "name": { "common": "Wallis and Futuna", "official": "Territory of the Wallis and Futuna Islands" },
        "tld": [".wf"],
        "currencies": ["xpf"],
        "callingCodes": ["681"],
        "languages": ["fra"]
    },
    {
        "alpha2": "ws",
        "alpha3": "wsm",
        "name": { "common": "Samoa", "official": "Independent State of Samoa" },
        "tld": [".ws"],
        "currencies": ["wst"],
        "callingCodes": ["685"],
        "languages": ["eng","smo"]
    },
    {
        "alpha2": "ye",
        "alpha3": "yem",
        "name": { "common": "Yemen", "official": "Republic of Yemen" },
        "tld": [".ye"],
        "currencies": ["yer"],
        "callingCodes": ["967"],
        "languages": ["ara"]
    },
    {
        "alpha2": "za",
        "alpha3": "zaf",
        "name": { "common": "South Africa", "official": "Republic of South Africa" },
        "tld": [".za"],
        "currencies": ["zar"],
        "callingCodes": ["27"],
        "languages": ["afr","eng","nbl","nso","sot","ssw","tsn","tso","ven","xho","zul"]
    },
    {
        "alpha2": "zm",
        "alpha3": "zmb",
        "name": { "common": "Zambia", "official": "Republic of Zambia" },
        "tld": [".zm"],
        "currencies": ["zmw"],
        "callingCodes": ["260"],
        "languages": ["eng"]
    },
    {
        "alpha2": "zw",
        "alpha3": "zwe",
        "name": { "common": "Zimbabwe", "official": "Republic of Zimbabwe" },
        "tld": [".zw"],
        "currencies": ["zwl"],
        "callingCodes": ["263"],
        "languages": ["bwg","eng","kck","khi","ndc","nde","nya","sna","sot","toi","tsn","tso","ven","xho","zib"]
    }
]